[{"OBJECT_NAME":"CONNECTA IOT-16","OBJECT_ID":"2026-004AD","EPOCH":"2026-03-09T22:28:21.027072","MEAN_MOTION":15.16909547,"ECCENTRICITY":0.00029488,"INCLINATION":97.4598,"RA_OF_ASC_NODE":69.3831,"ARG_OF_PERICENTER":354.609,"MEAN_ANOMALY":5.5111,"EPHEMERIS_TYPE":0,"CLASSIFICATION_TYPE":"U","NORAD_CAT_ID":67390,"ELEMENT_SET_NO":999,"REV_AT_EPOCH":869,"BSTAR":0.00024828447,"MEAN_MOTION_DOT":4.827e-5,"MEAN_MOTION_DDOT":0},{"OBJECT_NAME":"OBJECT G","OBJECT_ID":"2024-128G","EPOCH":"2026-03-09T22:09:32.997312","MEAN_MOTION":15.06569427,"ECCENTRICITY":0.00508438,"INCLINATION":61.9901,"RA_OF_ASC_NODE":202.8444,"ARG_OF_PERICENTER":113.9294,"MEAN_ANOMALY":246.7137,"EPHEMERIS_TYPE":0,"CLASSIFICATION_TYPE":"U","NORAD_CAT_ID":60241,"ELEMENT_SET_NO":999,"REV_AT_EPOCH":9135,"BSTAR":0.00049882926,"MEAN_MOTION_DOT":7.427e-5,"MEAN_MOTION_DDOT":0}]
